GLOBALSTAR M094 [+]     
1 39074U 13005C   24039.98911996 -.00000070  00000+0  18965-3 0  9991
2 39074  51.9935 246.8052 0000709  80.2271 279.8676 12.62262943509983
GLOBALSTAR M096 [+]     
1 39075U 13005D   24039.84413043 -.00000057  00000+0  26350-3 0  9999
2 39075  52.0080 295.3779 0000403  57.1655 302.9250 12.62272384508864
GLOBALSTAR M078 [+]     
1 39076U 13005E   24040.13467480 -.00000104  00000+0 -38018-5 0  9998
2 39076  51.9895  19.6727 0001097 146.3720 213.7216 12.62259619507733
GLOBALSTAR M095 [+]     
1 39077U 13005F   24039.92307731 -.00000101  00000+0  14132-4 0  9992
2 39077  51.9825  17.7565 0000555 176.3507 183.7363 12.62263026507354
GLOBALSTAR M087 [+]     
1 52888U 22064A   24040.13677624 -.00000053  00000+0  14242-3 0  9995
2 52888  51.9765 298.3736 0010080  39.3485 320.8147 13.37564742 80257
